[{"OBJECT_NAME":"STARLINK-35961","OBJECT_ID":"2025-265Q","EPOCH":"2026-03-08T23:34:58.990080","MEAN_MOTION":15.27598115,"ECCENTRICITY":0.00019365,"INCLINATION":43.004,"RA_OF_ASC_NODE":282.0756,"ARG_OF_PERICENTER":268.8997,"MEAN_ANOMALY":91.1633,"EPHEMERIS_TYPE":0,"CLASSIFICATION_TYPE":"U","NORAD_CAT_ID":66530,"ELEMENT_SET_NO":999,"REV_AT_EPOCH":1700,"BSTAR":0.0013363732,"MEAN_MOTION_DOT":0.00036716,"MEAN_MOTION_DDOT":0},{"OBJECT_NAME":"COSMOS 2251 DEB","OBJECT_ID":"1993-036BPR","EPOCH":"2026-02-24T07:57:21.236256","MEAN_MOTION":15.23776337,"ECCENTRICITY":0.00166824,"INCLINATION":73.9787,"RA_OF_ASC_NODE":76.2838,"ARG_OF_PERICENTER":284.1156,"MEAN_ANOMALY":75.8189,"EPHEMERIS_TYPE":0,"CLASSIFICATION_TYPE":"U","NORAD_CAT_ID":37966,"ELEMENT_SET_NO":999,"REV_AT_EPOCH":86459,"BSTAR":0.0031189174,"MEAN_MOTION_DOT":0.00076101,"MEAN_MOTION_DDOT":0}]
